OBJECT_NAME,OBJECT_ID,EPOCH,MEAN_MOTION,ECCENTRICITY,INCLINATION,RA_OF_ASC_NODE,ARG_OF_PERICENTER,MEAN_ANOMALY,EPHEMERIS_TYPE,CLASSIFICATION_TYPE,NORAD_CAT_ID,ELEMENT_SET_NO,REV_AT_EPOCH,BSTAR,MEAN_MOTION_DOT,MEAN_MOTION_DDOT
SKYNET 5A,2007-007B,2026-06-11T03:25:53.997312,1.00271345,.00040028,5.2861,73.8139,12.2203,320.1530,0,U,30794,999,7063,0,-.257E-5,0
ANIK F3,2007-009A,2026-06-11T14:23:32.402976,1.00271224,.00024889,1.1822,83.9128,0.5980,272.5796,0,U,31102,999,4650,0,.16E-6,0
ASTRA 1L,2007-016A,2026-06-11T07:59:43.472256,1.00272396,.00051933,1.3058,81.6182,7.2803,266.2306,0,U,31306,999,4492,0,-.167E-5,0
GALAXY 17 (G-17),2007-016B,2026-06-11T12:50:25.494720,1.00270469,.00047788,2.9572,79.9692,19.3531,268.1687,0,U,31307,999,6974,0,-.191E-5,0
INTELSAT 11 (IS-11),2007-044B,2026-06-11T12:15:06.381792,0.99053092,.00020628,3.5500,78.7361,88.2135,67.4745,0,U,32253,999,6839,0,-.266E-5,0
WGS F1 (USA 195),2007-046A,2026-06-11T02:46:39.396000,1.00271347,.00003501,0.0468,95.4661,58.1857,105.0027,0,U,32258,999,5227,0,-.25E-5,0
SKYNET 5B,2007-056B,2026-06-10T23:40:35.068800,1.00271862,.00040389,5.2373,73.5797,359.0105,206.9650,0,U,32294,999,6813,0,.155E-5,0
ASTRA 4A,2007-057A,2026-06-11T06:25:25.000608,1.00270303,.00022089,0.0146,327.1472,115.7145,277.9120,0,U,32299,999,5158,0,.49E-6,0
HORIZONS-2,2007-063B,2026-06-11T12:53:40.184160,1.00270448,.00038157,2.5868,80.6926,358.2929,300.5423,0,U,32388,999,6775,0,-.238E-5,0
THURAYA-3,2008-001A,2026-06-11T13:37:58.224864,1.00007890,.00014505,5.9794,35.7869,158.2679,351.7035,0,U,32404,999,6743,0,-.86E-6,0
THOR 5,2008-006A,2026-06-11T08:06:27.825984,1.00270319,.00023752,0.0329,258.2615,188.1043,294.1879,0,U,32487,999,6725,0,.8E-7,0
AMC-14,2008-011A,2026-06-11T03:32:21.844320,1.00354189,.00463551,23.9982,20.5930,6.5562,349.2601,0,U,32708,999,6810,0,-.31E-6,0
DIRECTV 11,2008-013A,2026-06-11T12:46:25.878144,1.00272580,.0000374,0.0110,241.9335,148.9362,321.4389,0,U,32729,999,4553,0,-.109E-5,0
ICO G1,2008-016A,2026-06-11T08:13:38.487648,1.00272317,.00023,5.5329,36.1650,29.5225,224.5466,0,U,32763,999,6648,0,-.159E-5,0
VINASAT-1,2008-018A,2026-06-11T12:09:36.909216,1.00269896,.00010815,0.0216,304.8378,146.9477,122.4179,0,U,32767,999,6653,0,-.311E-5,0
STAR ONE C2,2008-018B,2026-06-11T12:56:09.944736,1.00271182,.00025443,1.2259,82.5100,4.7254,301.7056,0,U,32768,999,6659,0,-.26E-5,0
AMOS-3,2008-022A,2026-06-11T13:24:35.662176,1.00472716,.00019787,0.4400,86.3122,69.5256,339.9916,0,U,32794,999,8228,0,.168E-5,0
GALAXY 18 (G-18),2008-024A,2026-06-11T14:22:17.522688,1.00269951,.00026007,0.0010,7.3900,72.1804,272.9407,0,U,32951,999,4579,0,.42E-6,0
ZHONGXING-9,2008-028A,2026-06-11T15:23:46.137408,1.00271830,.00043131,0.7532,85.4427,334.6793,163.2050,0,U,33051,999,6598,0,-.233E-5,0
SKYNET 5C,2008-030A,2026-06-11T03:36:38.709792,1.00269836,.00040047,3.7727,77.1098,13.3669,205.3856,0,U,33055,999,6589,0,-.124E-5,0
TURKSAT 3A,2008-030B,2026-06-11T13:26:42.957888,1.00273902,.00050338,0.0429,77.5635,352.3356,73.6899,0,U,33056,999,5230,0,.163E-5,0
INTELSAT 25 (IS-25),2008-034A,2026-06-11T13:56:26.176128,0.99037452,.00030404,2.6945,80.4359,55.5657,119.6210,0,U,33153,999,6563,0,-.268E-5,0
ECHOSTAR 11,2008-035A,2026-06-11T14:26:02.164416,1.00271440,.0002172,0.9899,84.2380,345.4325,296.9888,0,U,33207,999,5115,0,-.42E-6,0
SUPERBIRD-C2,2008-038A,2026-06-11T13:53:26.464128,1.00269759,.00059506,2.3458,81.3308,25.2466,137.6931,0,U,33274,999,10567,0,-.291E-5,0
INMARSAT 4-F3,2008-039A,2026-06-11T12:46:48.342144,1.00271885,.00028284,4.2884,31.6103,52.7866,269.1703,0,U,33278,999,4648,0,-.127E-5,0
NIMIQ 4,2008-044A,2026-06-11T12:51:17.911008,1.00269114,.00020054,0.0198,306.3151,139.0895,285.2805,0,U,33373,999,6492,0,-.203E-5,0
GALAXY 19 (G-19),2008-045A,2026-06-11T12:47:03.317856,1.00270707,.000259,0.0161,301.5791,139.6823,273.3876,0,U,33376,999,6484,0,-.122E-5,0
ASTRA 1M,2008-057A,2026-06-11T13:20:13.580736,1.00269312,.00046636,0.2811,82.3678,21.1004,15.8670,0,U,33436,999,4568,0,.137E-5,0
EUTELSAT HOTBIRD 13C,2008-065A,2026-06-11T13:00:24.537888,1.00272799,.00033356,2.9351,79.2559,0.4525,324.9754,0,U,33459,999,4728,0,-.267E-5,0
EXPRESS-AM44,2009-007A,2026-06-11T14:54:14.781024,1.00271395,.00041043,3.4480,78.4658,356.8282,37.2329,0,U,33595,999,5223,0,-.74E-6,0
NSS-9,2009-008A,2026-06-11T12:24:13.007808,1.00272088,.00019754,1.2463,82.7097,346.5526,199.7201,0,U,33749,999,6346,0,.88E-6,0
TELSTAR 11N,2009-009A,2026-06-11T07:55:58.831392,1.00269856,.00021848,0.0037,68.7176,9.6628,262.7427,0,U,34111,999,4618,0,-.234E-5,0
WGS F2 (USA 204),2009-017A,2026-06-11T12:07:38.695008,1.00271726,.00003909,0.0177,339.7150,273.8926,245.6734,0,U,34713,999,4556,0,.85E-6,0
SES-7 (PROTOSTAR 2),2009-027A,2026-06-11T06:54:56.445984,1.00271767,.00008416,0.0475,74.0597,100.3799,297.2185,0,U,34941,999,6257,0,-.328E-5,0
MEASAT-3A,2009-032A,2026-06-11T13:03:38.849760,1.00271299,.00028897,0.0269,18.7927,58.4455,178.5666,0,U,35362,999,797,0,-.94E-6,0
GOES 14,2009-033A,2026-06-11T13:56:03.712128,1.00112739,.00018013,1.6747,83.1097,7.9404,162.9425,0,U,35491,999,653,0,-.253E-5,0
FM-5,2009-034A,2026-06-11T12:50:10.519008,1.00270155,.000067,0.0133,300.8803,345.3547,80.0389,0,U,35493,999,4658,0,-.183E-5,0
TERRESTAR-1,2009-035A,2026-06-11T07:07:38.606304,1.00272002,.00027667,5.1779,48.8053,25.4768,181.2535,0,U,35496,999,6207,0,-.43E-6,0
ASIASAT 5,2009-042A,2026-06-11T15:59:40.339968,1.00269355,.00015256,0.0252,289.4098,137.5813,173.4320,0,U,35696,999,6165,0,-.29E-5,0
JCSAT-12 (JCSAT-RA),2009-044A,2026-06-11T12:09:36.909216,1.00270457,.00007118,0.0099,12.1102,311.8533,250.3378,0,U,35755,999,6155,0,-.311E-5,0
OPTUS D3,2009-044B,2026-06-11T12:16:36.237792,1.00273001,.00027271,0.8666,269.3880,169.7893,160.9741,0,U,35756,999,6150,0,-.128E-5,0
NIMIQ 5,2009-050A,2026-06-11T07:45:59.788224,1.00270849,.0002795,0.0272,280.5311,156.2951,226.6509,0,U,35873,999,6128,0,-.24E-5,0
AMAZONAS 2,2009-054A,2026-06-11T12:54:10.135584,1.00270651,.00032574,1.8002,83.1208,353.9778,304.3432,0,U,35942,999,6112,0,-.243E-5,0
COMSATBW-1,2009-054B,2026-06-11T15:40:28.932960,1.00272084,.00028285,0.0673,77.2435,9.0051,111.8760,0,U,35943,999,6125,0,.41E-6,0
NSS-12,2009-058A,2026-06-11T13:30:42.575328,1.00271376,.00046216,0.0752,66.9164,342.4954,110.1659,0,U,36032,999,6086,0,.88E-6,0
THOR 6,2009-058B,2026-06-11T08:06:27.825984,1.00271549,.00022386,0.0112,271.8703,202.3122,266.2721,0,U,36033,999,6094,0,.7E-7,0
INTELSAT 14 (IS-14),2009-064A,2026-06-11T02:45:54.468000,1.00269507,.00027029,0.0174,357.9227,100.1504,157.8674,0,U,36097,999,6054,0,-.256E-5,0
EUTELSAT 36B,2009-065A,2026-06-11T13:29:05.231040,1.00271637,.00058861,0.4763,81.0309,358.2327,73.3976,0,U,36101,999,6065,0,.129E-5,0
INTELSAT 15 (IS-15),2009-067A,2026-06-10T23:57:42.863328,1.00270566,.000216,0.0159,1.4448,83.3005,259.1829,0,U,36106,999,4116,0,-.168E-5,0
WGS F3 (USA 211),2009-068A,2026-06-11T12:37:41.715264,1.00269757,.00000869,0.3314,85.8331,22.6884,210.7946,0,U,36108,999,4653,0,.81E-6,0
DIRECTV 12,2009-075A,2026-06-11T09:26:38.884704,1.00271216,.00003066,0.0453,150.1436,263.7314,244.8030,0,U,36131,999,4649,0,-.86E-6,0
BEIDOU-2 G1,2010-001A,2026-06-11T15:37:23.526336,1.00272910,.00024624,4.2792,60.4241,303.6383,270.7568,0,U,36287,999,6011,0,-.266E-5,0
SDO,2010-005A,2026-06-11T06:59:38.676768,1.00270396,.00016074,34.6389,86.4327,52.7574,123.3287,0,U,36395,999,6000,0,-.74E-6,0
INTELSAT 16 (IS-16),2010-006A,2026-06-11T12:52:55.256160,1.00271512,.0001902,0.0095,321.8828,135.4071,279.6284,0,U,36397,999,5959,0,-.228E-5,0
EWS-G2 (GOES 15),2010-008A,2026-06-11T13:32:49.871040,1.00275507,.00054135,1.2616,82.9449,40.6741,43.1421,0,U,36411,999,5958,0,.34E-6,0
ECHOSTAR 14,2010-010A,2026-06-11T14:23:24.914688,1.00272179,.00023514,0.0546,89.5297,10.2730,257.1031,0,U,36499,999,4649,0,.17E-6,0
SES-1,2010-016A,2026-06-11T12:45:55.925856,1.00270770,.00026232,0.0245,305.5542,135.1012,269.7099,0,U,36516,999,5897,0,-.97E-6,0
ASTRA 3B,2010-021A,2026-06-11T13:21:28.461024,1.00268286,.00041358,1.4560,83.6236,359.1641,40.9987,0,U,36581,999,5881,0,.153E-5,0
COMSATBW-2,2010-021B,2026-06-11T13:18:28.749024,1.00270648,.00025717,0.0307,51.2261,44.4779,17.0011,0,U,36582,999,5890,0,.105E-5,0
BEIDOU-2 G3,2010-024A,2026-06-11T15:20:08.983968,1.00272089,.00081358,4.5013,61.5392,351.8760,156.3107,0,U,36590,999,5871,0,-.122E-5,0
BADR-5,2010-025A,2026-06-11T13:23:20.781888,1.00267188,.00031607,0.0710,110.5956,82.8522,297.7907,0,U,36592,999,5316,0,.17E-5,0
COMS 1,2010-032A,2026-06-03T23:47:39.107040,1.00270643,.0001016,4.7750,75.5286,4.5847,297.3769,0,U,36744,999,5095,0,-.334E-5,0
ARABSAT-5A,2010-032B,2026-06-11T13:23:28.270176,1.00271292,.00056109,0.0792,55.7814,44.7366,30.7195,0,U,36745,999,5859,0,.17E-5,0
ECHOSTAR 15,2010-034A,2026-06-11T14:23:32.402976,1.00271795,.00016443,0.0214,43.8311,41.8729,271.3133,0,U,36792,999,5826,0,.16E-6,0
BEIDOU-2 IGSO-1,2010-036A,2026-06-11T15:38:38.764320,1.00273705,.00591827,54.3019,163.0102,225.0933,214.2172,0,U,36828,999,5804,0,-.28E-6,0
NILESAT 201,2010-037A,2026-06-11T08:04:42.993408,1.00271662,.00043444,0.0448,148.9589,323.0217,261.8982,0,U,36830,999,5831,0,-.4E-6,0
RASCOM-QAF 1R,2010-037B,2026-06-11T08:07:27.729696,1.00271408,.00067822,0.0089,50.9211,26.3350,307.1816,0,U,36831,999,5824,0,.35E-6,0
AEHF-1 (USA 214),2010-039A,2026-06-10T22:31:35.528160,1.00271626,.00039135,8.2029,68.1290,6.5164,192.4639,0,U,36868,999,5359,0,.16E-5,0
XM-5,2010-053A,2026-06-11T14:24:32.308416,1.00272357,.00029244,0.0626,274.0505,282.8150,164.0155,0,U,37185,999,5742,0,-.6E-7,0
BSAT-3B,2010-056B,2026-06-11T15:49:20.954784,1.00270252,.00014434,0.0743,248.3937,301.8487,56.9542,0,U,37207,999,5204,0,-.333E-5,0
BEIDOU-2 G4,2010-057A,2026-06-11T13:19:38.726976,1.00271513,.00050257,3.6316,68.9822,198.3824,352.4612,0,U,37210,999,5723,0,-.97E-6,0
SKYTERRA 1,2010-061A,2026-06-10T07:40:31.381824,1.00268505,.00023068,5.1097,50.8591,10.4068,211.2027,0,U,37218,999,5712,0,-.103E-5,0
